EUTELSAT 8 WEST B       
1 40875U 15039B   25307.74942345 -.00000053  00000+0  00000+0 0  9994
2 40875   0.0699 345.3295 0003963 241.7889  77.9370  1.00271438 37392
EUTELSAT 9B             
1 41310U 16005A   25307.75280347  .00000075  00000+0  00000+0 0  9994
2 41310   0.0653  72.6889 0004239 175.6289  74.9662  1.00271250 35854
EUTELSAT 65 WEST A      
1 41382U 16014A   25307.57544752 -.00000263  00000+0  00000+0 0  9996
2 41382   0.0799  50.3873 0002635 185.6673 309.0178  1.00269383 35270
EUTELSAT 117 WEST B     
1 41589U 16038B   25307.65647764  .00000001  00000+0  00000+0 0  9996
2 41589   0.0144 105.6957 0000235 339.0327  77.7870  1.00273171 34407
EUTELSAT 172B           
1 42741U 17029B   25306.39141980  .00000007  00000+0  00000+0 0  9993
2 42741   0.0203 177.6528 0000042 282.5481 254.6471  1.00270874 31458
EUTELSAT 7C             
1 44334U 19034B   25307.75237014  .00000061  00000+0  00000+0 0  9996
2 44334   0.0677 186.2779 0003307  19.3343 115.5198  1.00270409  4575
EUTELSAT 5 WEST B       
1 44624U 19067A   25307.75003013 -.00000028  00000+0  00000+0 0  9998
2 44624   0.0745 329.4008 0003620 260.1157  78.7790  1.00275636 22177
EUTELSAT KONNECT        
1 45027U 20005B   25307.75245681  .00000062  00000+0  00000+0 0  9996
2 45027   0.0649  89.7591 0001270 184.8139  46.7880  1.00267770 22065
